<?xml version="1.0" encoding="UTF-8"?>
<ndm xmlns:xsi="http://www.w3.org/2001/XMLSchema-instance" xsi:noNamespaceSchemaLocation="https://sanaregistry.org/r/ndmxml_unqualified/ndmxml-2.0.0-master-2.0.xsd">
<omm id="CCSDS_OMM_VERS" version="2.0">
<header><CREATION_DATE/><ORIGINATOR/></header><body><segment><metadata><OBJECT_NAME>ONEWEB-0021</OBJECT_NAME><OBJECT_ID>2020-008D</OBJECT_ID><CENTER_NAME>EARTH</CENTER_NAME><REF_FRAME>TEME</REF_FRAME><TIME_SYSTEM>UTC</TIME_SYSTEM><MEAN_ELEMENT_THEORY>SGP4</MEAN_ELEMENT_THEORY></metadata><data><meanElements><EPOCH>2023-09-13T23:33:03.285792</EPOCH><MEAN_MOTION>13.10422484</MEAN_MOTION><ECCENTRICITY>.0002187</ECCENTRICITY><INCLINATION>87.8834</INCLINATION><RA_OF_ASC_NODE>236.2752</RA_OF_ASC_NODE><ARG_OF_PERICENTER>86.9808</ARG_OF_PERICENTER><MEAN_ANOMALY>273.1569</MEAN_ANOMALY></meanElements><tleParameters><EPHEMERIS_TYPE>0</EPHEMERIS_TYPE><CLASSIFICATION_TYPE>U</CLASSIFICATION_TYPE><NORAD_CAT_ID>45134</NORAD_CAT_ID><ELEMENT_SET_NO>999</ELEMENT_SET_NO><REV_AT_EPOCH>17761</REV_AT_EPOCH><BSTAR>-.23608E-1</BSTAR><MEAN_MOTION_DOT>-.8227E-4</MEAN_MOTION_DOT><MEAN_MOTION_DDOT>0</MEAN_MOTION_DDOT></tleParameters></data></segment></body></omm>
<omm id="CCSDS_OMM_VERS" version="2.0">
<header><CREATION_DATE/><ORIGINATOR/></header><body><segment><metadata><OBJECT_NAME>ONEWEB-0022</OBJECT_NAME><OBJECT_ID>2020-008E</OBJECT_ID><CENTER_NAME>EARTH</CENTER_NAME><REF_FRAME>TEME</REF_FRAME><TIME_SYSTEM>UTC</TIME_SYSTEM><MEAN_ELEMENT_THEORY>SGP4</MEAN_ELEMENT_THEORY></metadata><data><meanElements><EPOCH>2023-09-14T09:18:52.744608</EPOCH><MEAN_MOTION>13.10381543</MEAN_MOTION><ECCENTRICITY>.000189</ECCENTRICITY><INCLINATION>87.8837</INCLINATION><RA_OF_ASC_NODE>236.2122</RA_OF_ASC_NODE><ARG_OF_PERICENTER>75.6422</ARG_OF_PERICENTER><MEAN_ANOMALY>284.4915</MEAN_ANOMALY></meanElements><tleParameters><EPHEMERIS_TYPE>0</EPHEMERIS_TYPE><CLASSIFICATION_TYPE>U</CLASSIFICATION_TYPE><NORAD_CAT_ID>45135</NORAD_CAT_ID><ELEMENT_SET_NO>999</ELEMENT_SET_NO><REV_AT_EPOCH>17724</REV_AT_EPOCH><BSTAR>.16858E-2</BSTAR><MEAN_MOTION_DOT>.601E-5</MEAN_MOTION_DOT><MEAN_MOTION_DDOT>0</MEAN_MOTION_DDOT></tleParameters></data></segment></body></omm>
<omm id="CCSDS_OMM_VERS" version="2.0">
<header><CREATION_DATE/><ORIGINATOR/></header><body><segment><metadata><OBJECT_NAME>ONEWEB-0023</OBJECT_NAME><OBJECT_ID>2020-008F</OBJECT_ID><CENTER_NAME>EARTH</CENTER_NAME><REF_FRAME>TEME</REF_FRAME><TIME_SYSTEM>UTC</TIME_SYSTEM><MEAN_ELEMENT_THEORY>SGP4</MEAN_ELEMENT_THEORY></metadata><data><meanElements><EPOCH>2023-09-13T22:01:46.234272</EPOCH><MEAN_MOTION>13.10409213</MEAN_MOTION><ECCENTRICITY>.0001494</ECCENTRICITY><INCLINATION>87.8837</INCLINATION><RA_OF_ASC_NODE>236.2811</RA_OF_ASC_NODE><ARG_OF_PERICENTER>90.1415</ARG_OF_PERICENTER><MEAN_ANOMALY>269.9884</MEAN_ANOMALY></meanElements><tleParameters><EPHEMERIS_TYPE>0</EPHEMERIS_TYPE><CLASSIFICATION_TYPE>U</CLASSIFICATION_TYPE><NORAD_CAT_ID>45136</NORAD_CAT_ID><ELEMENT_SET_NO>999</ELEMENT_SET_NO><REV_AT_EPOCH>17616</REV_AT_EPOCH><BSTAR>-.13207E-1</BSTAR><MEAN_MOTION_DOT>-.4598E-4</MEAN_MOTION_DOT><MEAN_MOTION_DDOT>0</MEAN_MOTION_DDOT></tleParameters></data></segment></body></omm>
<omm id="CCSDS_OMM_VERS" version="2.0">
<header><CREATION_DATE/><ORIGINATOR/></header><body><segment><metadata><OBJECT_NAME>ONEWEB-0024</OBJECT_NAME><OBJECT_ID>2020-008G</OBJECT_ID><CENTER_NAME>EARTH</CENTER_NAME><REF_FRAME>TEME</REF_FRAME><TIME_SYSTEM>UTC</TIME_SYSTEM><MEAN_ELEMENT_THEORY>SGP4</MEAN_ELEMENT_THEORY></metadata><data><meanElements><EPOCH>2023-09-13T23:09:41.896800</EPOCH><MEAN_MOTION>13.10447857</MEAN_MOTION><ECCENTRICITY>.0002191</ECCENTRICITY><INCLINATION>87.8738</INCLINATION><RA_OF_ASC_NODE>236.3123</RA_OF_ASC_NODE><ARG_OF_PERICENTER>86.5520</ARG_OF_PERICENTER><MEAN_ANOMALY>273.5858</MEAN_ANOMALY></meanElements><tleParameters><EPHEMERIS_TYPE>0</EPHEMERIS_TYPE><CLASSIFICATION_TYPE>U</CLASSIFICATION_TYPE><NORAD_CAT_ID>45137</NORAD_CAT_ID><ELEMENT_SET_NO>999</ELEMENT_SET_NO><REV_AT_EPOCH>17708</REV_AT_EPOCH><BSTAR>-.3585E-1</BSTAR><MEAN_MOTION_DOT>-.12499E-3</MEAN_MOTION_DOT><MEAN_MOTION_DDOT>0</MEAN_MOTION_DDOT></tleParameters></data></segment></body></omm>
<omm id="CCSDS_OMM_VERS" version="2.0">
<header><CREATION_DATE/><ORIGINATOR/></header><body><segment><metadata><OBJECT_NAME>ONEWEB-0025</OBJECT_NAME><OBJECT_ID>2020-008H</OBJECT_ID><CENTER_NAME>EARTH</CENTER_NAME><REF_FRAME>TEME</REF_FRAME><TIME_SYSTEM>UTC</TIME_SYSTEM><MEAN_ELEMENT_THEORY>SGP4</MEAN_ELEMENT_THEORY></metadata><data><meanElements><EPOCH>2023-09-14T10:35:06.068544</EPOCH><MEAN_MOTION>13.10413562</MEAN_MOTION><ECCENTRICITY>.0002024</ECCENTRICITY><INCLINATION>87.8838</INCLINATION><RA_OF_ASC_NODE>236.1852</RA_OF_ASC_NODE><ARG_OF_PERICENTER>98.7644</ARG_OF_PERICENTER><MEAN_ANOMALY>261.3713</MEAN_ANOMALY></meanElements><tleParameters><EPHEMERIS_TYPE>0</EPHEMERIS_TYPE><CLASSIFICATION_TYPE>U</CLASSIFICATION_TYPE><NORAD_CAT_ID>45138</NORAD_CAT_ID><ELEMENT_SET_NO>999</ELEMENT_SET_NO><REV_AT_EPOCH>17747</REV_AT_EPOCH><BSTAR>-.22462E-1</BSTAR><MEAN_MOTION_DOT>-.7826E-4</MEAN_MOTION_DOT><MEAN_MOTION_DDOT>0</MEAN_MOTION_DDOT></tleParameters></data></segment></body></omm>
<omm id="CCSDS_OMM_VERS" version="2.0">
<header><CREATION_DATE/><ORIGINATOR/></header><body><segment><metadata><OBJECT_NAME>ONEWEB-0026</OBJECT_NAME><OBJECT_ID>2020-008J</OBJECT_ID><CENTER_NAME>EARTH</CENTER_NAME><REF_FRAME>TEME</REF_FRAME><TIME_SYSTEM>UTC</TIME_SYSTEM><MEAN_ELEMENT_THEORY>SGP4</MEAN_ELEMENT_THEORY></metadata><data><meanElements><EPOCH>2023-09-14T10:07:08.396544</EPOCH><MEAN_MOTION>13.11172140</MEAN_MOTION><ECCENTRICITY>.0002021</ECCENTRICITY><INCLINATION>87.8929</INCLINATION><RA_OF_ASC_NODE>221.0357</RA_OF_ASC_NODE><ARG_OF_PERICENTER>72.3560</ARG_OF_PERICENTER><MEAN_ANOMALY>287.7788</MEAN_ANOMALY></meanElements><tleParameters><EPHEMERIS_TYPE>0</EPHEMERIS_TYPE><CLASSIFICATION_TYPE>U</CLASSIFICATION_TYPE><NORAD_CAT_ID>45139</NORAD_CAT_ID><ELEMENT_SET_NO>999</ELEMENT_SET_NO><REV_AT_EPOCH>18004</REV_AT_EPOCH><BSTAR>-.32401E+0</BSTAR><MEAN_MOTION_DOT>-.113027E-2</MEAN_MOTION_DOT><MEAN_MOTION_DDOT>0</MEAN_MOTION_DDOT></tleParameters></data></segment></body></omm>
<omm id="CCSDS_OMM_VERS" version="2.0">
<header><CREATION_DATE/><ORIGINATOR/></header><body><segment><metadata><OBJECT_NAME>ONEWEB-0028</OBJECT_NAME><OBJECT_ID>2020-008K</OBJECT_ID><CENTER_NAME>EARTH</CENTER_NAME><REF_FRAME>TEME</REF_FRAME><TIME_SYSTEM>UTC</TIME_SYSTEM><MEAN_ELEMENT_THEORY>SGP4</MEAN_ELEMENT_THEORY></metadata><data><meanElements><EPOCH>2023-09-13T22:04:48.521856</EPOCH><MEAN_MOTION>13.11258043</MEAN_MOTION><ECCENTRICITY>.0002189</ECCENTRICITY><INCLINATION>87.8934</INCLINATION><RA_OF_ASC_NODE>221.1820</RA_OF_ASC_NODE><ARG_OF_PERICENTER>97.4225</ARG_OF_PERICENTER><MEAN_ANOMALY>262.7152</MEAN_ANOMALY></meanElements><tleParameters><EPHEMERIS_TYPE>0</EPHEMERIS_TYPE><CLASSIFICATION_TYPE>U</CLASSIFICATION_TYPE><NORAD_CAT_ID>45140</NORAD_CAT_ID><ELEMENT_SET_NO>999</ELEMENT_SET_NO><REV_AT_EPOCH>17660</REV_AT_EPOCH><BSTAR>-.77855E-3</BSTAR><MEAN_MOTION_DOT>-.263E-5</MEAN_MOTION_DOT><MEAN_MOTION_DDOT>0</MEAN_MOTION_DDOT></tleParameters></data></segment></body></omm>
<omm id="CCSDS_OMM_VERS" version="2.0">
<header><CREATION_DATE/><ORIGINATOR/></header><body><segment><metadata><OBJECT_NAME>ONEWEB-0032</OBJECT_NAME><OBJECT_ID>2020-008L</OBJECT_ID><CENTER_NAME>EARTH</CENTER_NAME><REF_FRAME>TEME</REF_FRAME><TIME_SYSTEM>UTC</TIME_SYSTEM><MEAN_ELEMENT_THEORY>SGP4</MEAN_ELEMENT_THEORY></metadata><data><meanElements><EPOCH>2023-09-13T22:08:46.702464</EPOCH><MEAN_MOTION>13.10397224</MEAN_MOTION><ECCENTRICITY>.0002221</ECCENTRICITY><INCLINATION>87.8828</INCLINATION><RA_OF_ASC_NODE>236.3314</RA_OF_ASC_NODE><ARG_OF_PERICENTER>83.8283</ARG_OF_PERICENTER><MEAN_ANOMALY>276.3097</MEAN_ANOMALY></meanElements><tleParameters><EPHEMERIS_TYPE>0</EPHEMERIS_TYPE><CLASSIFICATION_TYPE>U</CLASSIFICATION_TYPE><NORAD_CAT_ID>45141</NORAD_CAT_ID><ELEMENT_SET_NO>999</ELEMENT_SET_NO><REV_AT_EPOCH>17638</REV_AT_EPOCH><BSTAR>-.97608E-2</BSTAR><MEAN_MOTION_DOT>-.3395E-4</MEAN_MOTION_DOT><MEAN_MOTION_DDOT>0</MEAN_MOTION_DDOT></tleParameters></data></segment></body></omm>
<omm id="CCSDS_OMM_VERS" version="2.0">
<header><CREATION_DATE/><ORIGINATOR/></header><body><segment><metadata><OBJECT_NAME>ONEWEB-0033</OBJECT_NAME><OBJECT_ID>2020-008M</OBJECT_ID><CENTER_NAME>EARTH</CENTER_NAME><REF_FRAME>TEME</REF_FRAME><TIME_SYSTEM>UTC</TIME_SYSTEM><MEAN_ELEMENT_THEORY>SGP4</MEAN_ELEMENT_THEORY></metadata><data><meanElements><EPOCH>2023-09-13T23:21:22.446144</EPOCH><MEAN_MOTION>13.10433223</MEAN_MOTION><ECCENTRICITY>.0002177</ECCENTRICITY><INCLINATION>87.8832</INCLINATION><RA_OF_ASC_NODE>236.3279</RA_OF_ASC_NODE><ARG_OF_PERICENTER>78.6980</ARG_OF_PERICENTER><MEAN_ANOMALY>281.4392</MEAN_ANOMALY></meanElements><tleParameters><EPHEMERIS_TYPE>0</EPHEMERIS_TYPE><CLASSIFICATION_TYPE>U</CLASSIFICATION_TYPE><NORAD_CAT_ID>45142</NORAD_CAT_ID><ELEMENT_SET_NO>999</ELEMENT_SET_NO><REV_AT_EPOCH>17720</REV_AT_EPOCH><BSTAR>-.30689E-1</BSTAR><MEAN_MOTION_DOT>-.10697E-3</MEAN_MOTION_DOT><MEAN_MOTION_DDOT>0</MEAN_MOTION_DDOT></tleParameters></data></segment></body></omm>

</ndm>
